C/2024 B1 (Lemmon),h,10/07.7578/2024,70.8986,79.1885,66.2250,1.001168,1.633873,2000,13.0,4.0
# From MPC181183
C/2024 B2 (Lemmon),e,99.8735,294.3883,130.3183,1315,0.0000207,0.99689956,0.0000,10/05.4374/2023,2000,g 11.5,4.0
# From MPC185658
C/2024 C1 (PANSTARRS),e,14.2264,83.8107,94.5060,10.59251,0.0285894,0.58337964,14.2590,01/12.0/2026,2000,g 11.5,4.0
# From MPEC 2024-JU4
C/2024 C2 (PANSTARRS),e,27.2841,66.4516,87.6154,16.24501,0.0150530,0.44649300,4.6012,01/12.0/2026,2000,g  6.0,4.0
# From MPC184412
C/2024 C3 (PANSTARRS),e,22.4498,359.7002,159.7406,11.67836,0.0246963,0.42510766,19.6210,01/12.0/2026,2000,g  9.0,4.0
# From MPC185658
C/2024 D1 (Lemmon),e,132.4483,179.6553,125.7949,19409,0.0000004,0.99965523,0.0000,12/03.4985/2027,2000,g  7.3,4.0
# From MPEC 2025-YF1
C/2024 E1 (Wierzchos),h,01/20.7677/2026,75.2401,108.0796,243.6268,1.000064,0.566096,2000,7.0,4.0
# From MPEC 2024-JU4
C/2024 E2 (Bok),e,155.6528,135.6599,358.1941,51.21614,0.0026890,0.84969668,2.1763,01/12.0/2026,2000,g  8.0,4.0
# From MPC181183
P/2024 F1 (PANSTARRS),e,7.0073,251.5188,229.5890,3.446220,0.1540599,0.46023230,124.6666,01/12.0/2026,2000,g 16.0,4.0
# From MPC188411
C/2024 F2 (PANSTARRS),e,13.7444,138.9389,112.8783,9.945807,0.0314227,0.60111978,16.7191,01/12.0/2026,2000,g 11.0,4.0
# From MPEC 2024-UA9
P/2024 FG9 (Nanshan-Hahn),e,1.7310,253.0393,245.9480,3.258023,0.1675996,0.50999363,100.8144,01/12.0/2026,2000,g 14.0,4.0
# From MPC184412
C/2024 G1 (Wierzchos),e,95.3854,30.6050,128.2212,122.1272,0.0007303,0.96782003,0.3271,01/12.0/2026,2000,g 10.0,4.0
# From MPEC 2026-A24
C/2024 G2 (ATLAS),e,122.1204,171.3990,328.7471,704.9595,0.0000527,0.99241322,0.0000,06/13.5993/2025,2000,g  7.0,4.0
# From MPC184412
C/2024 G3 (ATLAS),h,01/13.4227/2025,116.8463,220.3915,108.1560,1.000007,0.093633,2000,9.0,4.0
# From MPEC 2025-V36
C/2024 G4 (PANSTARRS),e,33.0279,152.9742,131.4133,3388,0.0000050,0.99855358,0.0000,03/21.5086/2026,2000,g  8.0,4.0
# From MPEC 2024-JC6
C/2024 G5 (Leonard),e,50.3882,316.3860,209.5981,601.9334,0.0000667,0.99509351,0.0000,09/07.1241/2024,2000,g 13.0,4.0
# From MPC188411
C/2024 G6 (ATLAS),h,02/20.6094/2026,120.4515,250.9508,23.4259,1.001828,6.430001,2000,5.5,4.0
# From MPC184412
C/2024 G7 (ATLAS),h,02/09.9829/2025,131.5099,191.9710,289.6514,1.001721,6.027471,2000,7.0,4.0
# From MPC181184
P/2024 J1 (PANSTARRS),e,13.1628,321.9379,200.3726,3.809021,0.1325818,0.30773916,105.0835,01/12.0/2026,2000,g 14.5,4.0
# From MPEC 2025-W75
C/2024 J2 (Wierzchos),e,79.2988,189.0609,143.1489,147.3756,0.0005509,0.98771072,0.0000,03/19.7573/2025,2000,g 11.5,4.0
# From MPEC 2025-YF1
C/2024 J3 (ATLAS),h,11/25.3919/2026,75.6414,285.9614,74.0888,1.000392,3.865432,2000,5.0,4.0
# From MPC188411
C/2024 J4 (Lemmon),e,117.5229,19.3118,127.8558,5579,0.0000024,0.99897921,0.0000,04/25.9469/2025,2000,g  8.0,4.0
# From MPC181184
P/2024 K1 (PANSTARRS),e,1.8204,251.6104,349.3701,6.834516,0.0551623,0.49065331,34.6156,01/12.0/2026,2000,g 13.5,4.0
# From MPC186631
C/2024 L1 (PANSTARRS),e,99.1573,45.1383,171.7816,11.46343,0.0253940,0.53347288,6.7037,01/12.0/2026,2000,g 10.0,4.0
# From MPC181184
C/2024 L2 (PANSTARRS),h,06/17.0851/2025,139.5847,266.1803,345.8676,1.004781,8.326133,2000,7.5,3.2
# From MPC181184
C/2024 L3 (PANSTARRS),h,11/23.6794/2023,111.5922,295.0038,59.0511,1.003820,6.857713,2000,9.5,4.0
# From MPEC 2026-A24
C/2024 L5 (ATLAS),h,03/10.4492/2025,166.5732,139.1774,290.5304,1.037077,3.432831,2000,9.0,4.0
# From MPC188412
C/2024 M1 (ATLAS),e,73.7094,76.2159,345.5912,29.76168,0.0060704,0.94275924,2.5376,01/12.0/2026,2000,g 12.0,4.0
# From MPEC 2025-V36
C/2024 N1 (PANSTARRS),h,10/18.8911/2025,88.7813,323.0253,91.2567,1.000994,4.398464,2000,10.5,4.0
# From MPEC 2025-X35
C/2024 N3 (Sarneczky),h,04/11.5400/2025,88.7281,82.6107,86.8951,1.001908,5.014697,2000,8.0,4.0
# From MPEC 2026-A24
C/2024 N4 (Sarneczky),h,01/10.4079/2025,49.7827,339.6499,116.7401,1.003982,5.398564,2000,7.5,4.0
# From MPEC 2024-PC5
C/2024 O1 (PANSTARRS),h,01/28.0980/2023,59.0820,303.3459,349.8535,1.000153,6.605083,2000,8.5,4.0
# From MPEC 2024-UA9
P/2024 O2 (PANSTARRS),e,28.9791,6.8080,310.7642,7.377293,0.0491879,0.49878050,31.0887,01/12.0/2026,2000,g 12.0,4.0
# From MPC186632
C/2024 PN7 (PANSTARRS),e,101.2050,358.5844,74.2706,66.94004,0.0017996,0.97722407,0.0000,12/06.4066/2024,2000,g 15.2,4.0
# From MPEC 2024-UQ8
P/2024 Q1 (PANSTARRS),e,5.0027,22.9488,284.8790,3.527458,0.1487686,0.53426550,85.7461,01/12.0/2026,2000,g 17.0,4.0
# From MPC185660
C/2024 Q3 (PANSTARRS),h,03/05.2030/2025,121.3771,337.2887,70.1286,1.001346,2.091663,2000,15.0,4.0
# From MPC188412
C/2024 Q4 (PANSTARRS),e,3.3170,324.2640,133.0448,543.8481,0.0000777,0.99003442,0.0000,11/11.8543/2024,2000,g 10.0,4.0
# From MPEC 2024-TP3
P/2024 R1 (PANSTARRS),e,12.7150,84.9788,230.9694,3.463647,0.1528986,0.49271389,87.8906,01/12.0/2026,2000,g 18.0,4.0
# From MPC182883
P/2024 R2 (PANSTARRS),e,15.1204,192.9749,203.8319,3.147241,0.1765261,0.26873791,82.5498,01/12.0/2026,2000,g 15.5,4.0
# From MPC181185
P/2024 R3 (PANSTARRS),e,14.6998,33.0633,309.5818,3.202935,0.1719420,0.26803196,105.3592,01/12.0/2026,2000,g 15.0,4.0
# From MPEC 2026-A24
C/2024 R4 (PANSTARRS),h,10/26.7303/2027,95.3734,345.9415,109.0040,1.002437,4.408709,2000,6.5,4.0
# From MPC188412
C/2024 S1 (ATLAS),e,142.2470,348.3771,70.1360,85.33065,0.0012504,0.99990668,0.0000,10/28.4086/2024,2000,g 15.5,4.0
# From MPC181185
P/2024 S2 (Rankin),e,7.5266,8.3341,49.1497,5.035529,0.0872241,0.59339516,42.1117,01/12.0/2026,2000,g 15.0,4.0
# From MPC182883
P/2024 T1 (Rankin),e,17.6201,279.7100,164.8728,6.598005,0.0581547,0.65332164,27.2533,01/12.0/2026,2000,g 14.5,4.0
# From MPC184413
P/2024 T2 (Rankin),e,12.9289,113.0598,343.8415,6.171894,0.0642801,0.68037806,25.6908,01/12.0/2026,2000,g 16.0,4.0
# From MPEC 2025-YF1
C/2024 T3 (PANSTARRS),e,53.4223,74.8168,336.8962,88.73698,0.0011791,0.95812358,0.3569,01/12.0/2026,2000,g 11.5,4.0
# From MPEC 2026-A24
C/2024 T5 (ATLAS),h,05/06.2450/2027,52.3870,100.6788,352.4622,1.002209,3.840282,2000,5.5,4.0
# From MPC188412
C/2024 U1 (PANSTARRS),e,128.7557,270.2654,188.1053,483.2027,0.0000928,0.98998935,0.0000,06/30.5659/2024,2000,g 10.0,4.0
# From MPEC 2025-YF1
A/2024 U2,h,01/15.4792/2026,120.6675,56.0720,29.8366,1.003067,8.178935,2000,12.1,2.0
# From MPC185660
C/2024 V1 (Borisov),e,54.6249,328.1931,168.6766,231.7487,0.0002794,0.98999492,0.0000,04/04.1224/2025,2000,g 14.8,4.0
# From MPC182883
C/2024 W1 (PANSTARRS),e,83.2026,310.7247,256.7472,45.04554,0.0032601,0.94315058,0.9743,01/12.0/2026,2000,g 15.0,4.0
# From MPC182883
A/2024 W2,h,02/27.4300/2025,116.6120,241.9372,168.0112,1.002174,3.720961,2000,15.6,2.0
# From MPEC 2025-YF1
C/2024 X1 (Fazekas),e,6.4711,351.9276,124.3725,9.413012,0.0341280,0.59454237,5.5249,01/12.0/2026,2000,g 11.3,4.0
# From MPEC 2026-A24
C/2024 X2 (ATLAS),e,109.2332,122.5184,315.8060,51.42440,0.0026727,0.92850696,0.5023,01/12.0/2026,2000,g  9.6,4.0
# From MPEC 2026-A24
P/2024 X3 (PANSTARRS),e,2.9723,113.3628,352.9721,6.995189,0.0532727,0.62619246,26.2725,01/12.0/2026,2000,g 14.6,4.0
# From MPEC 2026-A24
C/2024 X4 (PANSTARRS),e,34.6630,258.9459,153.3197,10.08941,0.0307543,0.64273239,4.0575,01/12.0/2026,2000,g 12.6,4.0
# From MPC186632
C/2024 XK14 (Bok),e,109.2124,239.0918,243.4945,17.01784,0.0140394,0.87897088,3.3143,01/12.0/2026,2000,g 15.5,4.0
# From MPEC 2026-A24
A/2025 A1,h,03/13.7256/2027,33.4210,101.3284,68.1852,1.001778,5.339820,2000,11.3,2.0
# From MPC184414
P/2025 A2 (PANSTARRS),e,20.7343,189.3186,278.0620,5.083291,0.0859977,0.32193413,39.8435,01/12.0/2026,2000,g 13.2,4.0
# From MPC184414
C/2025 A3 (Tsuchinshan),e,9.9759,322.4309,222.3339,10.19938,0.0302582,0.43211200,358.1148,01/12.0/2026,2000,g  9.0,4.0
# From MPC185660
C/2025 A4 (PANSTARRS),e,32.0237,69.9156,102.8110,11.06338,0.0267838,0.65431858,9.7419,01/12.0/2026,2000,g 12.4,4.0
# From MPEC 2026-A24
C/2025 A6 (Lemmon),e,143.6628,108.0980,132.9672,121.9525,0.0007318,0.99565490,0.0000,11/08.5383/2025,2000,g 13.2,4.0
# From MPC188413
A/2025 A7,e,133.6556,348.8601,195.5809,3389,0.0000050,0.99914918,0.0000,03/28.1005/2025,2000,g 14.9,2.0
# From MPC182885
C/2025 B1 (PANSTARRS),e,39.6807,102.8414,23.5263,56714,0.0000001,0.99993774,0.0000,06/26.7513/2025,2000,g 12.0,4.0
# From MPEC 2026-A24
C/2025 B2 (Borisov),h,09/11.6596/2026,91.7449,84.8673,78.8520,1.001771,8.239131,2000,6.2,4.0
# From MPC188413
P/2025 C1 (ATLAS),e,7.5166,9.0955,186.8151,4.196787,0.1146380,0.34568415,38.9064,01/12.0/2026,2000,g 10.8,4.0
# From MPEC 2026-A24
C/2025 D1 (Groeller),h,05/21.3715/2028,84.4535,312.9022,185.9285,1.003142,14.117351,2000,1.2,4.0
# From MPEC 2025-UQ3
P/2025 D2 (PANSTARRS),e,5.3584,257.1790,318.3336,8.713490,0.0383191,0.15063533,315.5555,01/12.0/2026,2000,g  8.2,4.0
# From MPC186632
P/2025 D3 (PANSTARRS),e,9.6428,186.6338,294.5317,3.968057,0.1246916,0.25247883,66.7114,01/12.0/2026,2000,g 14.7,4.0
# From MPC188413
P/2025 D4 (ATLAS),e,15.9389,233.1179,332.8919,8.909473,0.0370618,0.63467566,12.2929,01/12.0/2026,2000,g 13.2,4.0
# From MPC184415
C/2025 D5 (PANSTARRS),e,73.3812,0.7333,211.4970,3305,0.0000052,0.99939119,0.0000,05/13.2957/2025,2000,g 17.6,4.0
# From MPEC 2025-UQ3
C/2025 D6 (ATLAS),e,145.7971,151.4921,285.4232,1207,0.0000235,0.99792514,0.0000,12/11.3775/2024,2000,g 13.2,4.0
# From MPEC 2025-YF1
C/2025 E1 (PANSTARRS),e,69.0608,344.5925,274.4217,1588,0.0000156,0.99748216,0.0000,09/23.7117/2026,2000,g  9.7,4.0
# From MPC185661
C/2025 F1 (ATLAS),e,109.2373,122.7055,334.2264,282.2430,0.0002079,0.99620896,0.0000,04/20.4596/2025,2000,g 18.0,4.0
# From MPC188413
C/2025 F2 (SWAN),h,05/01.1542/2025,90.3686,329.8313,153.8395,1.000138,0.333599,2000,11.2,4.0
# From MPEC 2026-A24
C/2025 J1 (Borisov),e,95.4442,273.9768,166.6213,1311,0.0000208,0.99726877,0.0000,06/11.7936/2026,2000,g  9.1,4.0
# From MPEC 2026-A24
C/2025 K1 (ATLAS),h,10/08.4406/2025,147.8641,97.5579,271.0216,1.000259,0.334196,2000,12.2,4.0
# From MPEC 2026-A24
C/2025 K1-B,h,10/08.4525/2025,147.9166,97.6398,271.3219,1.001993,0.335744,2000,14.7,4.0
# From MPEC 2026-A24
